54114,ONEWEB-0492,2022,109.11,148.0,+,87.91,Active,1,LEO,India,UK,Commercial,Communications,PSLV,1 54114U 22138B   24207.18000055  .00000052  00000+0  96436-4 0  9993,2 54114  87.9128  82.6641 0001685  68.4862 291.6451 13.19729529 85563,13.19729529,0.0001685,LEO
54115,ONEWEB-0495,2022,109.11,148.0,+,87.91,Active,1,LEO,India,UK,Commercial,Communications,PSLV,1 54115U 22138C   24207.15787182  .00000098  00000+0  21303-3 0  9994,2 54115  87.9127  82.6804 0001976  53.2467 306.8847 13.19726892 85546,13.19726892,0.0001976,LEO
54116,ONEWEB-0497,2022,109.11,148.0,+,87.91,Active,1,LEO,India,UK,Commercial,Communications,PSLV,1 54116U 22138D   24207.17049830  .00000063  00000+0  12559-3 0  9993,2 54116  87.9122  82.6644 0001727  74.2410 285.8913 13.19727267 85535,13.19727267,0.0001727,LEO
54117,ONEWEB-0499,2022,109.11,148.0,+,87.91,Active,1,LEO,India,UK,Commercial,Communications,PSLV,1 54117U 22138E   24207.15312907  .00000144  00000+0  32811-3 0  9993,2 54117  87.9126  82.6706 0002262  74.2518 285.8864 13.19725166 85545,13.19725166,0.0002262,LEO
54118,ONEWEB-0500,2022,109.11,148.0,+,87.91,Active,1,LEO,India,UK,Commercial,Communications,PSLV,1 54118U 22138F   24207.15628682  .00000169  00000+0  39012-3 0  9991,2 54118  87.9127  82.6646 0001677  78.8511 281.2810 13.19726715 85555,13.19726715,0.0001677,LEO
54119,ONEWEB-0501,2022,109.11,148.0,+,87.91,Active,1,LEO,India,UK,Commercial,Communications,PSLV,1 54119U 22138G   24207.18630680  .00000661  00000+0  16188-2 0  9991,2 54119  87.9122  82.6570 0001940  63.4846 296.6485 13.19731085 85533,13.19731085,0.000194,LEO
54120,ONEWEB-0502,2022,109.11,148.0,+,87.91,Active,1,LEO,India,UK,Commercial,Communications,PSLV,1 54120U 22138H   24207.17207441  .00000085  00000+0  18052-3 0  9990,2 54120  87.9121  82.6483 0001993  69.8704 290.2643 13.19727842 85552,13.19727842,0.0001993,LEO
54121,ONEWEB-0503,2022,109.11,148.0,+,87.91,Active,1,LEO,India,UK,Commercial,Communications,PSLV,1 54121U 22138J   24207.16102202 -.00000049  00000+0 -15593-3 0  9998,2 54121  87.9120  82.6569 0002238  82.9671 277.1716 13.19726767 85548,13.19726767,0.0002238,LEO
